{"type": "FeatureCollection", "features": [{"type": "Feature", "properties": {"norad_id": 24876, "name": "GPS BIIR-2  (PRN 13)", "group": "gnss", "lat": 21.317613480412273, "lon": 120.59186410005664, "alt_km": 19958.190760545003, "timestamp": "2025-12-27T17:24:57.646184+00:00", "meta": {"OBJECT_NAME": "GPS BIIR-2  (PRN 13)", "OBJECT_ID": "1997-035A", "EPOCH": "2025-12-26T16:37:51.239424", "MEAN_MOTION": 2.00563658, "ECCENTRICITY": 0.0096861, "INCLINATION": 55.9017, "RA_OF_ASC_NODE": 105.3231, "ARG_OF_PERICENTER": 56.9183, "MEAN_ANOMALY": 304.0095, "EPHEMERIS_TYPE": 0, "CLASSIFICATION_TYPE": "U", "NORAD_CAT_ID": 24876, "ELEMENT_SET_NO": 999, "REV_AT_EPOCH": 20849, "BSTAR": 0, "MEAN_MOTION_DOT": 2.3e-07, "MEAN_MOTION_DDOT": 0}, "tle": {"line1": "1 24876U 97035A   25360.69295416  .00000023  00000+0  00000+0 0  9992", "line2": "2 24876  55.9017 105.3231 0096861  56.9183 304.0095  2.00563658208492"}}, "geometry": {"type": "Point", "coordinates": [120.59186410005664, 21.317613480412273]}}, {"type": "Feature", "properties": {"norad_id": 26360, "name": "GPS BIIR-4  (PRN 20)", "group": "gnss", "lat": 46.17325708488426, "lon": 159.5008279920991, "alt_km": 20235.661311603035, "timestamp": "2025-12-27T17:24:57.646249+00:00", "meta": {"OBJECT_NAME": "GPS BIIR-4  (PRN 20)", "OBJECT_ID": "2000-025A", "EPOCH": "2025-12-27T03:31:58.663200", "MEAN_MOTION": 2.0056635, "ECCENTRICITY": 0.00388988, "INCLINATION": 55.0538, "RA_OF_ASC_NODE": 26.2552, "ARG_OF_PERICENTER": 243.3579, "MEAN_ANOMALY": 177.6691, "EPHEMERIS_TYPE": 0, "CLASSIFICATION_TYPE": "U", "NORAD_CAT_ID": 26360, "ELEMENT_SET_NO": 999, "REV_AT_EPOCH": 18782, "BSTAR": 0, "MEAN_MOTION_DOT": -5.6e-07, "MEAN_MOTION_DDOT": 0}, "tle": {"line1": "1 26360U 00025A   25361.14720675 -.00000056  00000+0  00000+0 0  9993", "line2": "2 26360  55.0538  26.2552 0038898 243.3579 177.6691  2.00566350187826"}}, "geometry": {"type": "Point", "coordinates": [159.5008279920991, 46.17325708488426]}}, {"type": "Feature", "properties": {"norad_id": 26407, "name": "GPS BIIR-5  (PRN 22)", "group": "gnss", "lat": -32.6211669614729, "lon": -164.77316199338262, "alt_km": 19867.40082597238, "timestamp": "2025-12-27T17:24:57.646270+00:00", "meta": {"OBJECT_NAME": "GPS BIIR-5  (PRN 22)", "OBJECT_ID": "2000-040A", "EPOCH": "2025-12-27T11:36:30.034080", "MEAN_MOTION": 2.00568072, "ECCENTRICITY": 0.0125219, "INCLINATION": 54.8877, "RA_OF_ASC_NODE": 221.9826, "ARG_OF_PERICENTER": 302.0383, "MEAN_ANOMALY": 201.6627, "EPHEMERIS_TYPE": 0, "CLASSIFICATION_TYPE": "U", "NORAD_CAT_ID": 26407, "ELEMENT_SET_NO": 999, "REV_AT_EPOCH": 18650, "BSTAR": 0, "MEAN_MOTION_DOT": 8.1e-07, "MEAN_MOTION_DDOT": 0}, "tle": {"line1": "1 26407U 00040A   25361.48368095  .00000081  00000+0  00000+0 0  9990", "line2": "2 26407  54.8877 221.9826 0125219 302.0383 201.6627  2.00568072186503"}}, "geometry": {"type": "Point", "coordinates": [-164.77316199338262, -32.6211669614729]}}, {"type": "Feature", "properties": {"norad_id": 27663, "name": "GPS BIIR-8  (PRN 16)", "group": "gnss", "lat": 54.52874133025476, "lon": -38.60292169203671, "alt_km": 19887.446683267193, "timestamp": "2025-12-27T17:24:57.646285+00:00", "meta": {"OBJECT_NAME": "GPS BIIR-8  (PRN 16)", "OBJECT_ID": "2003-005A", "EPOCH": "2025-12-26T14:42:29.071008", "MEAN_MOTION": 2.00570063, "ECCENTRICITY": 0.0147921, "INCLINATION": 54.9204, "RA_OF_ASC_NODE": 221.8264, "ARG_OF_PERICENTER": 52.0033, "MEAN_ANOMALY": 318.8923, "EPHEMERIS_TYPE": 0, "CLASSIFICATION_TYPE": "U", "NORAD_CAT_ID": 27663, "ELEMENT_SET_NO": 999, "REV_AT_EPOCH": 16785, "BSTAR": 0, "MEAN_MOTION_DOT": 7.5e-07, "MEAN_MOTION_DDOT": 0}, "tle": {"line1": "1 27663U 03005A   25360.61283647  .00000075  00000+0  00000+0 0  9995", "line2": "2 27663  54.9204 221.8264 0147921  52.0033 318.8923  2.00570063167856"}}, "geometry": {"type": "Point", "coordinates": [-38.60292169203671, 54.52874133025476]}}, {"type": "Feature", "properties": {"norad_id": 28190, "name": "GPS BIIR-11 (PRN 19)", "group": "gnss", "lat": -51.88162493258127, "lon": 165.83112198032953, "alt_km": 20164.67449090816, "timestamp": "2025-12-27T17:24:57.646299+00:00", "meta": {"OBJECT_NAME": "GPS BIIR-11 (PRN 19)", "OBJECT_ID": "2004-009A", "EPOCH": "2025-12-27T01:44:09.252384", "MEAN_MOTION": 2.00560169, "ECCENTRICITY": 0.01086232, "INCLINATION": 54.9727, "RA_OF_ASC_NODE": 282.6413, "ARG_OF_PERICENTER": 167.8785, "MEAN_ANOMALY": 332.9978, "EPHEMERIS_TYPE": 0, "CLASSIFICATION_TYPE": "U", "NORAD_CAT_ID": 28190, "ELEMENT_SET_NO": 999, "REV_AT_EPOCH": 15949, "BSTAR": 0, "MEAN_MOTION_DOT": -3.3e-07, "MEAN_MOTION_DDOT": 0}, "tle": {"line1": "1 28190U 04009A   25361.07232931 -.00000033  00000+0  00000+0 0  9992", "line2": "2 28190  54.9727 282.6413 0108623 167.8785 332.9978  2.00560169159492"}}, "geometry": {"type": "Point", "coordinates": [165.83112198032953, -51.88162493258127]}}, {"type": "Feature", "properties": {"norad_id": 28474, "name": "GPS BIIR-13 (PRN 02)", "group": "gnss", "lat": -36.71377537283761, "lon": -59.3931456502576, "alt_km": 19732.03154086237, "timestamp": "2025-12-27T17:24:57.646312+00:00", "meta": {"OBJECT_NAME": "GPS BIIR-13 (PRN 02)", "OBJECT_ID": "2004-045A", "EPOCH": "2025-12-26T11:00:01.330272", "MEAN_MOTION": 2.00570057, "ECCENTRICITY": 0.0171007, "INCLINATION": 55.2338, "RA_OF_ASC_NODE": 331.8542, "ARG_OF_PERICENTER": 309.865, "MEAN_ANOMALY": 168.2197, "EPHEMERIS_TYPE": 0, "CLASSIFICATION_TYPE": "U", "NORAD_CAT_ID": 28474, "ELEMENT_SET_NO": 999, "REV_AT_EPOCH": 15496, "BSTAR": 0, "MEAN_MOTION_DOT": -5.9e-07, "MEAN_MOTION_DDOT": 0}, "tle": {"line1": "1 28474U 04045A   25360.45834873 -.00000059  00000+0  00000+0 0  9999", "line2": "2 28474  55.2338 331.8542 0171007 309.8650 168.2197  2.00570057154961"}}, "geometry": {"type": "Point", "coordinates": [-59.3931456502576, -36.71377537283761]}}, {"type": "Feature", "properties": {"norad_id": 28874, "name": "GPS BIIRM-1 (PRN 17)", "group": "gnss", "lat": -54.987263061566, "lon": -166.4682688977213, "alt_km": 19863.407214070456, "timestamp": "2025-12-27T17:24:57.646325+00:00", "meta": {"OBJECT_NAME": "GPS BIIRM-1 (PRN 17)", "OBJECT_ID": "2005-038A", "EPOCH": "2025-12-27T11:43:07.333248", "MEAN_MOTION": 2.00577349, "ECCENTRICITY": 0.0131147, "INCLINATION": 55.0187, "RA_OF_ASC_NODE": 280.107, "ARG_OF_PERICENTER": 293.9094, "MEAN_ANOMALY": 167.2168, "EPHEMERIS_TYPE": 0, "CLASSIFICATION_TYPE": "U", "NORAD_CAT_ID": 28874, "ELEMENT_SET_NO": 999, "REV_AT_EPOCH": 14839, "BSTAR": 0, "MEAN_MOTION_DOT": -3.1e-07, "MEAN_MOTION_DDOT": 0}, "tle": {"line1": "1 28874U 05038A   25361.48827932 -.00000031  00000+0  00000+0 0  9998", "line2": "2 28874  55.0187 280.1070 0131147 293.9094 167.2168  2.00577349148391"}}, "geometry": {"type": "Point", "coordinates": [-166.4682688977213, -54.987263061566]}}, {"type": "Feature", "properties": {"norad_id": 28899, "name": "INMARSAT 4-F2 (SOUTHPAN/PRN 122)", "group": "gnss", "lat": 4.842624291999415, "lon": 141.18706462884037, "alt_km": 35793.40041283232, "timestamp": "2025-12-27T17:24:57.646340+00:00", "meta": {"OBJECT_NAME": "INMARSAT 4-F2 (SOUTHPAN/PRN 122)", "OBJECT_ID": "2005-044A", "EPOCH": "2025-12-27T06:46:51.570048", "MEAN_MOTION": 1.00270915, "ECCENTRICITY": 0.0002646, "INCLINATION": 4.8699, "RA_OF_ASC_NODE": 43.7147, "ARG_OF_PERICENTER": 230.5744, "MEAN_ANOMALY": 66.9378, "EPHEMERIS_TYPE": 0, "CLASSIFICATION_TYPE": "U", "NORAD_CAT_ID": 28899, "ELEMENT_SET_NO": 999, "REV_AT_EPOCH": 7379, "BSTAR": 0, "MEAN_MOTION_DOT": -2.41e-06, "MEAN_MOTION_DDOT": 0}, "tle": {"line1": "1 28899U 05044A   25361.28254132 -.00000241  00000+0  00000+0 0  9999", "line2": "2 28899   4.8699  43.7147 0002646 230.5744  66.9378  1.00270915 73793"}}, "geometry": {"type": "Point", "coordinates": [141.18706462884037, 4.842624291999415]}}, {"type": "Feature", "properties": {"norad_id": 29486, "name": "GPS BIIRM-2 (PRN 31)", "group": "gnss", "lat": 3.6671813383441405, "lon": -24.46507993217689, "alt_km": 20336.572591250955, "timestamp": "2025-12-27T17:24:57.646353+00:00", "meta": {"OBJECT_NAME": "GPS BIIRM-2 (PRN 31)", "OBJECT_ID": "2006-042A", "EPOCH": "2025-12-26T12:05:34.202112", "MEAN_MOTION": 2.00553566, "ECCENTRICITY": 0.010727, "INCLINATION": 54.6956, "RA_OF_ASC_NODE": 158.1947, "ARG_OF_PERICENTER": 52.2681, "MEAN_ANOMALY": 319.984, "EPHEMERIS_TYPE": 0, "CLASSIFICATION_TYPE": "U", "NORAD_CAT_ID": 29486, "ELEMENT_SET_NO": 999, "REV_AT_EPOCH": 14093, "BSTAR": 0, "MEAN_MOTION_DOT": 1.08e-06, "MEAN_MOTION_DDOT": 0}, "tle": {"line1": "1 29486U 06042A   25360.50386808  .00000108  00000+0  00000+0 0  9992", "line2": "2 29486  54.6956 158.1947 0107270  52.2681 319.9840  2.00553566140935"}}, "geometry": {"type": "Point", "coordinates": [-24.46507993217689, 3.6671813383441405]}}, {"type": "Feature", "properties": {"norad_id": 29601, "name": "GPS BIIRM-3 (PRN 12)", "group": "gnss", "lat": -41.276110627353084, "lon": 78.81069206541065, "alt_km": 20379.333037138582, "timestamp": "2025-12-27T17:24:57.646365+00:00", "meta": {"OBJECT_NAME": "GPS BIIRM-3 (PRN 12)", "OBJECT_ID": "2006-052A", "EPOCH": "2025-12-25T21:48:25.793568", "MEAN_MOTION": 2.00574428, "ECCENTRICITY": 0.00879901, "INCLINATION": 54.968, "RA_OF_ASC_NODE": 220.8755, "ARG_OF_PERICENTER": 87.5984, "MEAN_ANOMALY": 273.4866, "EPHEMERIS_TYPE": 0, "CLASSIFICATION_TYPE": "U", "NORAD_CAT_ID": 29601, "ELEMENT_SET_NO": 999, "REV_AT_EPOCH": 13993, "BSTAR": 0, "MEAN_MOTION_DOT": 7.2e-07, "MEAN_MOTION_DDOT": 0}, "tle": {"line1": "1 29601U 06052A   25359.90863187  .00000072  00000+0  00000+0 0  9994", "line2": "2 29601  54.9680 220.8755 0087990  87.5984 273.4866  2.00574428139938"}}, "geometry": {"type": "Point", "coordinates": [78.81069206541065, -41.276110627353084]}}]}